QIANFAN-60              
1 62790U 25016F   25209.63224290  .00000148  00000+0  21087-3 0  9997
2 62790  88.9832 117.2489 0016799  26.7958 333.4058 13.50967054 28719
QIANFAN-61              
1 62791U 25016G   25209.79290998  .00000138  00000+0  19452-3 0  9995
2 62791  88.9900 117.2970 0016183  25.4001 334.7942 13.50956678 28753
QIANFAN-62              
1 62792U 25016H   25209.79684468  .00000150  00000+0  21291-3 0  9993
2 62792  88.9846 117.2392 0017591  25.1752 335.0253 13.50955613 28741
QIANFAN-63              
1 62793U 25016J   25209.80919155  .00000164  00000+0  23468-3 0  9993
2 62793  88.9852 117.1774 0017515  29.3462 330.8669 13.50952732 28789
QIANFAN-64              
1 62794U 25016K   25210.17126368  .00000155  00000+0  22117-3 0  9992
2 62794  88.9839 117.1387 0015155  23.5157 336.6684 13.50961420 28820
QIANFAN-65              
1 62795U 25016L   25210.52527750  .00000141  00000+0  19925-3 0  9990
2 62795  88.9835 117.1304 0015363  24.1596 336.0272 13.50959413 28850
QIANFAN-66              
1 62796U 25016M   25210.47986717  .00000162  00000+0  23261-3 0  9998
2 62796  88.9854 117.0784 0016349  19.7508 340.4272 13.50961692 28896
QIANFAN-67              
1 62797U 25016N   25209.59534776  .00000150  00000+0  21346-3 0  9993
2 62797  88.9845 117.2080 0016603  28.3680 331.8371 13.50962937 28749
QIANFAN-68              
1 62798U 25016P   25209.52532442  .00000151  00000+0  21453-3 0  9995
2 62798  88.9849 117.2585 0017191  26.7700 333.4334 13.50960332 28713
QIANFAN-69              
1 62799U 25016Q   25209.52937019  .00000138  00000+0  19458-3 0  9992
2 62799  88.9827 117.1540 0017384  27.6674 332.5398 13.50961188 28758
QIANFAN-70              
1 62800U 25016R   25209.54591638  .00000155  00000+0  22157-3 0  9999
2 62800  88.9849 117.2616 0016675  18.9798 341.1971 13.50959717 28716
QIANFAN-71              
1 62801U 25016S   25209.54188343  .00000153  00000+0  21858-3 0  9990
2 62801  88.9843 117.2499 0017395  30.8396 329.3773 13.50959570 28712
QIANFAN-72              
1 62802U 25016T   25209.53761436  .00000149  00000+0  21119-3 0  9995
2 62802  88.9832 117.2724 0020959  35.8733 324.3820 13.50961240 28706
QIANFAN-73              
1 63159U 25046A   25209.58530133  .00000126  00000+0  17606-3 0  9998
2 63159  88.9856 334.1530 0016095 154.6464 205.5480 13.50957397 28890
QIANFAN-74              
1 63160U 25046B   25209.56891451  .00000143  00000+0  20230-3 0  9997
2 63160  88.9856 334.0433 0001976 100.8513 259.2861 13.50961780 28950
QIANFAN-75              
1 63161U 25046C   25209.85282640  .00000135  00000+0  18957-3 0  9998
2 63161  88.9858 334.2458 0017209 157.1859 203.0061 13.50958309 28868
QIANFAN-76              
1 63162U 25046D   25210.14479148  .00000165  00000+0  23737-3 0  9999
2 63162  88.9857 334.1971 0014801 156.0990 204.0851 13.50954314 28912
QIANFAN-77              
1 63163U 25046E   25210.57499410  .00000344  00000+0  24138-3 0  9996
2 63163  88.9855 333.2760 0016383 140.4248 219.8128 13.96003038 29456
QIANFAN-78              
1 63164U 25046F   25209.59355896  .00000159  00000+0  22799-3 0  9991
2 63164  88.9856 334.1191 0016048 160.2929 199.8846 13.50957543 28913
QIANFAN-79              
1 63165U 25046G   25210.14074570  .00000156  00000+0  22324-3 0  9993
2 63165  88.9860 334.1652 0015828 157.1531 203.0328 13.50959808 28942
QIANFAN-80              
1 63166U 25046H   25209.63886046  .00000151  00000+0  21448-3 0  9996
2 63166  88.9857 333.9274 0014656 162.0603 198.1069 13.50960040 29025
QIANFAN-81              
1 63167U 25046J   25210.58109888  .00000143  00000+0  20266-3 0  9993
2 63167  88.9858 333.8992 0016039 149.2559 210.9535 13.50959182 29102
QIANFAN-82              
1 63168U 25046K   25209.79915152  .00000135  00000+0  18974-3 0  9998
2 63168  88.9857 334.0228 0013918 157.8471 202.3284 13.50960505 28980
QIANFAN-83              
1 63169U 25046L   25209.60763672  .00000188  00000+0  22741-3 0  9992
2 63169  88.9857 334.0872 0015362 151.9786 208.2201 13.61929297 28939
QIANFAN-84              
1 63170U 25046M   25209.60583443  .00000179  00000+0  25887-3 0  9994
2 63170  88.9857 334.1758 0016949 156.1327 204.0613 13.50962386 28884
QIANFAN-85              
1 63171U 25046N   25210.49054511  .00000145  00000+0  20555-3 0  9993
2 63171  88.9857 333.9573 0014351 155.1993 204.9850 13.50957044 29079
QIANFAN-86              
1 63172U 25046P   25210.57284076  .00000142  00000+0  20055-3 0  9996
2 63172  88.9860 333.8079 0012146 157.7771 202.3909 13.50957306 29164
QIANFAN-87              
1 63173U 25046Q   25210.17359153  .00000128  00000+0  17954-3 0  9990
2 63173  88.9855 333.9656 0012948 154.5927 205.5864 13.50954995 29042
QIANFAN-88              
1 63174U 25046R   25209.59772870  .00000139  00000+0  19683-3 0  9993
2 63174  88.9858 333.9759 0013049 163.6783 196.4791 13.50957200 28996
QIANFAN-89              
1 63175U 25046S   25209.63466264  .00000150  00000+0  21334-3 0  9995
2 63175  88.9857 334.1611 0017610 156.7288 203.4664 13.50961952 28893
QIANFAN-90              
1 63176U 25046T   25209.58938299  .00000159  00000+0  22700-3 0  9999
2 63176  88.9858 334.1379 0014612 154.0582 206.1305 13.50960442 28900
